ONEWEB-0627             
1 55168U 23004AE  23286.84151585  .00000073  00000+0  15389-3 0  9990
2 55168  87.9235 200.1328 0001494 102.7521 257.3778 13.17648970 38874
ONEWEB-0628             
1 55169U 23004AF  23286.73687061 -.00000109  00000+0 -33828-3 0  9992
2 55169  87.8991 185.0145 0001870  92.7650 267.3693 13.12439615 39822
ONEWEB-0629             
1 55170U 23004AG  23287.13894220  .00000166  00000+0  39421-3 0  9992
2 55170  87.9250 200.0581 0002216  88.8269 271.3116 13.17651895 38917
ONEWEB-0631             
1 55171U 23004AH  23287.25001157 -.00030647  00000+0 -21983-1 0  9996
2 55171  87.1258 172.4191 0004919  68.8171 340.0486 13.97307389 40707
ONEWEB-0709             
1 55172U 23004AJ  23286.84150338 -.00000478  00000+0 -13843-2 0  9993
2 55172  87.9006 215.2539 0001270  50.4923 309.6317 13.11422965 37779
ONEWEB-0710             
1 55173U 23004AK  23287.20854421  .00000133  00000+0  30914-3 0  9994
2 55173  87.9250 200.0534 0001590  73.5891 286.5416 13.17651125 38922
ONEWEB-0711             
1 55174U 23004AL  23286.81388884  .00000147  00000+0  38023-3 0  9990
2 55174  87.8998 215.2326 0001745 103.1652 256.9670 13.11413150 37734
ONEWEB-0713             
1 55175U 23004AM  23286.83176143 -.00000605  00000+0 -17430-2 0  9995
2 55175  87.8996 215.2365 0001874  91.3307 268.8036 13.11423473 37720
ONEWEB-0715             
1 55176U 23004AN  23287.20839035 -.00000325  00000+0 -95417-3 0  9995
2 55176  87.8980 215.1736 0002098  82.3997 277.7369 13.11404986 37826
ONEWEB-0716             
1 55177U 23004AP  23287.20221394  .00000104  00000+0  23430-3 0  9998
2 55177  87.9232 200.0562 0002142  70.1776 289.9586 13.17649540 38929
ONEWEB-0717             
1 55178U 23004AQ  23286.80566148  .00000183  00000+0  43871-3 0  9991
2 55178  87.9251 200.0877 0001159 108.9758 251.1499 13.17649189 38920
ONEWEB-0719             
1 55179U 23004AR  23287.19589036  .00000097  00000+0  21650-3 0  9991
2 55179  87.9250 199.9979 0002099  83.2227 276.9143 13.17649277 38928
ONEWEB-0530             
1 55796U 23029A   23287.25001157  .00000015  00000+0  00000+0 0  9995
2 55796  87.7207 109.0793 0003607  90.1742 327.1102 13.53903951 32856
ONEWEB-0534             
1 55797U 23029B   23287.25001157  .00000015  00000+0  00000+0 0  9996
2 55797  87.7233 109.0792 0002207  86.9692 317.3840 13.54588803 32831
ONEWEB-0556             
1 55798U 23029C   23287.25001157  .00000015  00000+0  00000+0 0  9997
2 55798  87.7387 109.0663 0002677  48.0690 208.4959 13.54271593 32833
ONEWEB-0562             
1 55799U 23029D   23287.25001157  .00000015  00000+0  00000+0 0  9998
2 55799  87.7304 109.0589 0003827  73.3031  36.4891 13.53821139 32838
ONEWEB-0563             
1 55800U 23029E   23287.25001157  .00000015  00000+0  00000+0 0  9991
2 55800  87.6892 109.1173 0002457  79.2554 177.2174 13.56176385 32821
ONEWEB-0564             
1 55801U 23029F   23287.25001157  .00000015  00000+0  00000+0 0  9992
2 55801  87.7270 109.0600 0003127  64.1272  15.6952 13.54007927 32857
ONEWEB-0638             
1 55802U 23029G   23287.11653543 -.00000170  00000+0 -49231-3 0  9997
2 55802  87.8962 124.2473 0002470  82.1074 278.0336 13.14508521 31744
ONEWEB-0639             
1 55803U 23029H   23287.13253461  .00000067  00000+0  13414-3 0  9992
2 55803  87.9209 139.4363 0002581  49.1437 310.9919 13.19727146 30726
ONEWEB-0640             
1 55804U 23029J   23287.04891179 -.00000105  00000+0 -31839-3 0  9993
2 55804  87.8939 124.2729 0002826  78.2563 281.8884 13.14506678 31727
ONEWEB-0641             
1 55805U 23029K   23286.82452888  .00000098  00000+0  21178-3 0  9993
2 55805  87.9145 139.5194 0001796  68.7476 291.3849 13.19724704 30009
ONEWEB-0642             
1 55806U 23029L   23286.89559211  .00000130  00000+0  29163-3 0  9998
2 55806  87.9208 139.4851 0002266  47.0459 313.0863 13.19728572 30008
ONEWEB-0643             
1 55807U 23029M   23286.79311095  .00000082  00000+0  18596-3 0  9998
2 55807  87.8964 124.2873 0001804  38.1954 321.9303 13.14497569 30989
ONEWEB-0644             
1 55808U 23029N   23287.11833114  .00000123  00000+0  27596-3 0  9993
2 55808  87.9138 139.4467 0001928  57.5065 302.6254 13.19725224 30726
ONEWEB-0645             
1 55809U 23029P   23287.11437162  .00000103  00000+0  22463-3 0  9993
2 55809  87.9211 139.4375 0002230  68.3975 291.7395 13.19722984 30728
ONEWEB-0646             
1 55810U 23029Q   23286.84112317  .00000099  00000+0  21541-3 0  9996
2 55810  87.9211 139.4947 0001647  67.7721 292.3586 13.19726080 29984
ONEWEB-0648             
1 55811U 23029R   23287.05945597 -.00000001  00000+0 -36118-4 0  9997
2 55811  87.8964 124.1998 0002532  56.4918 303.6453 13.14507311 31737
ONEWEB-0649             
1 55812U 23029S   23286.87982069 -.00000056  00000+0 -17124-3 0  9997
2 55812  87.9214 139.4871 0002074  64.9827 295.1521 13.19724983 30719
ONEWEB-0650             
1 55813U 23029T   23286.87506852  .00000041  00000+0  69183-4 0  9995
2 55813  87.9208 139.4853 0001739  64.0564 296.0747 13.19727685 29999
ONEWEB-0652             
1 55814U 23029U   23286.81635744 -.00000221  00000+0 -63190-3 0  9996
2 55814  87.8963 124.2633 0001919  86.9966 273.1383 13.14498136 30966
ONEWEB-0653             
1 55815U 23029V   23286.80365824 -.00000114  00000+0 -34304-3 0  9991
2 55815  87.9044 124.1973 0002041  88.8882 271.2481 13.14498974 30990
ONEWEB-0654             
1 55816U 23029W   23286.79732738 -.00000034  00000+0 -12584-3 0  9999
2 55816  87.8964 124.2584 0001822 104.8330 255.3001 13.14500457 31018
ONEWEB-0656             
1 55817U 23029X   23287.25001157  .00000015  00000+0  00000+0 0  9999
2 55817  87.5916 109.1793 0002591  54.0216 213.3978 13.59771692 32827
ONEWEB-0657             
1 55818U 23029Y   23286.64288800  .00000107  00000+0  23563-3 0  9999
2 55818  87.9213 139.5365 0000655  91.5519 268.5688 13.19725589 29977
ONEWEB-0658             
1 55819U 23029Z   23286.63815980  .00000117  00000+0  26013-3 0  9998
2 55819  87.9195 139.4825 0001976  59.3045 300.8282 13.19726635 29984
ONEWEB-0660             
1 55820U 23029AA  23287.07637122  .00000306  00000+0  79214-3 0  9990
2 55820  87.8970 124.1726 0002304  74.4919 285.6465 13.14507167 31743
ONEWEB-0661             
1 55821U 23029AB  23286.58165264 -.00000170  00000+0 -49250-3 0  9997
2 55821  87.8966 124.3421 0002236  79.7593 280.3789 13.14502938 30957
ONEWEB-0662             
1 55822U 23029AC  23286.84381663  .00000170  00000+0  42450-3 0  9993
2 55822  87.8963 124.2979 0002082  72.1202 288.0154 13.14503349 31033
ONEWEB-0663             
1 55823U 23029AD  23287.25001157  .00000015  00000+0  00000+0 0  9996
2 55823  87.6222 109.1980 0002865  68.8097 116.0499 13.58119330 32828
ONEWEB-0664             
1 55824U 23029AE  23287.25001157  .00000015  00000+0  00000+0 0  9997
2 55824  87.6285 109.2099 0002444  59.3196  23.9085 13.58246221 32825
ONEWEB-0665             
1 55825U 23029AF  23286.57742403 -.00000060  00000+0 -19718-3 0  9990
2 55825  87.8964 124.3179 0002071  76.0350 284.1010 13.14499089 30970
ONEWEB-0666             
1 55826U 23029AG  23287.25001157  .00000015  00000+0  00000+0 0  9999
2 55826  87.6192 109.2073 0001987  43.9578 256.2413 13.59014561 32827
ONEWEB-0667             
1 55827U 23029AH  23287.25001157  .00000015  00000+0  00000+0 0  9990
2 55827  87.5694 109.2088 0002436  71.9906  25.0325 13.60754368 32828
ONEWEB-0669             
1 55828U 23029AJ  23287.25001157  .00000015  00000+0  00000+0 0  9991
2 55828  87.6147 109.1794 0002764  39.6151 215.3163 13.58342696 32821
ONEWEB-0670             
1 55829U 23029AK  23287.08907810  .00000282  00000+0  72629-3 0  9990
2 55829  87.8967 124.2142 0002417  82.1537 277.9867 13.14498303 31750
ONEWEB-0671             
1 55830U 23029AL  23286.63341452  .00000151  00000+0  34538-3 0  9998
2 55830  87.9216 139.5399 0002070  78.2527 281.8838 13.19726764 29965
ONEWEB-0672             
1 55831U 23029AM  23287.25001157  .00000015  00000+0  00000+0 0  9995
2 55831  87.5909 109.1922 0002529  56.3146  43.9611 13.59662105 32826
ONEWEB-0673             
1 55832U 23029AN  23287.14044653  .00000151  00000+0  34456-3 0  9999
2 55832  87.9108 139.4620 0002006  74.0683 286.0670 13.19727693 30740
ONEWEB-0674             
1 55833U 23029AP  23287.05101481 -.00000047  00000+0 -16017-3 0  9992
2 55833  87.8959 124.2365 0002389  87.7197 272.4206 13.14500696 31727
ONEWEB-0675             
1 55834U 23029AQ  23287.15623492  .00000127  00000+0  28586-3 0  9996
2 55834  87.9129 139.4385 0001235  71.6958 288.4309 13.19726399 30763
ONEWEB-0720             
1 55835U 23029AR  23287.14832773  .00000255  00000+0  60483-3 0  9994
2 55835  87.9116 139.4446 0002057  65.7919 294.3429 13.19728427 30664
ONEWEB-0537             
1 56046U 23043A   23287.25001157 -.01218509  00000+0 -55178+0 0  9998
2 56046  87.2922  65.3394 0002385 347.6543 322.9236 14.25456893 31056
ONEWEB-0538             
1 56047U 23043B   23287.25001157 -.01203342  00000+0 -53583+0 0  9996
2 56047  87.2875  65.3991 0002351  18.1047  47.5016 14.26292217 31054
ONEWEB-0546             
1 56048U 23043C   23286.91667824 -.01251499  00000+0 -56090+0 0  9990
2 56048  87.2891  65.4331 0003526 125.5313  54.5538 14.26087593  5727
ONEWEB-0547             
1 56049U 23043D   23287.15891122 -.00000970  00000+0 -23844-2 0  9997
2 56049  87.9197  78.4888 0001271  75.9805 284.1470 13.21684957 30066
ONEWEB-0548             
1 56050U 23043E   23287.25001157 -.01311028  00000+0 -58041+0 0  9995
2 56050  87.2819  65.4144 0003561 103.4996 199.7978 14.26896224 31057
ONEWEB-0549             
1 56051U 23043F   23286.84927063  .00004067  00000+0  97939-2 0  9994
2 56051  87.9194  78.5528 0001801  92.6361 267.4979 13.21939986 29117
ONEWEB-0550             
1 56052U 23043G   23286.98802050  .00001489  00000+0  35666-2 0  9992
2 56052  87.9198  78.5358 0001734  92.4184 267.7148 13.21969664 30040
